H1 CPF  1  DLR 2022 06 04 10  6552 technosat            
H2  1704205 6203    42829 2022 06 04 00 00 00 2022 06 11 00 00 00    60 1 1  0 0 0
H9
10 0 59737  43200.000000  0       1818442.302      -4837365.117       4656648.017
10 0 59737  43260.000000  0       1615073.901      -4581272.747       4978615.298
10 0 59737  43320.000000  0       1407201.170      -4303983.524       5279350.085
10 0 59737  43380.000000  0       1195886.116      -4006640.705       5557574.674
10 0 59737  43440.000000  0        982194.600      -3690481.563       5812108.452
10 0 59737  43500.000000  0        767190.932      -3356831.907       6041872.750
10 0 59737  43560.000000  0        551932.552      -3007100.253       6245895.228
10 0 59737  43620.000000  0        337464.822      -2642771.642       6423313.830
10 0 59737  43680.000000  0        124815.943      -2265401.089       6573380.226
10 0 59737  43740.000000  0        -85007.931      -1876606.793       6695462.751
10 0 59737  43800.000000  0       -291027.465      -1478063.107       6789048.965
10 0 59737  43860.000000  0       -492294.721      -1071493.125       6853747.696
10 0 59737  43920.000000  0       -687897.487       -658661.095       6889290.508
10 0 59737  43980.000000  0       -876963.411       -241364.661       6895532.691
10 0 59737  44040.000000  0      -1058663.910        178573.037       6872453.738
10 0 59737  44100.000000  0      -1232217.787        599311.408       6820157.314
10 0 59737  44160.000000  0      -1396894.571       1019000.521       6738870.711
10 0 59737  44220.000000  0      -1552017.581       1435789.256       6628943.847
10 0 59737  44280.000000  0      -1696966.733       1847833.517       6490847.770
10 0 59737  44340.000000  0      -1831181.001       2253304.422       6325172.647
10 0 59737  44400.000000  0      -1954160.589       2650396.480       6132625.308
10 0 59737  44460.000000  0      -2065468.772       3037335.715       5914026.248
10 0 59737  44520.000000  0      -2164733.381       3412387.601       5670306.220
10 0 59737  44580.000000  0      -2251648.018       3773864.970       5402502.450
10 0 59737  44640.000000  0      -2325972.952       4120135.760       5111754.281
10 0 59737  44700.000000  0      -2387535.625       4449630.541       4799298.383
10 0 59737  44760.000000  0      -2436230.823       4760849.789       4466463.550
10 0 59737  44820.000000  0      -2472020.519       5052370.898       4114665.084
10 0 59737  44880.000000  0      -2494933.370       5322854.884       3745398.758
10 0 59737  44940.000000  0      -2505063.849       5571052.696       3360234.383
10 0 59737  45000.000000  0      -2502571.045       5795811.105       2960809.080
10 0 59737  45060.000000  0      -2487677.149       5996078.215       2548820.263
10 0 59737  45120.000000  0      -2460665.620       6170908.537       2126018.315
10 0 59737  45180.000000  0      -2421879.013       6319467.552       1694199.000
10 0 59737  45240.000000  0      -2371716.507       6441035.761       1255195.695
10 0 59737  45300.000000  0      -2310631.162       6535012.212        810871.443
10 0 59737  45360.000000  0      -2239126.906       6600917.469        363110.854
10 0 59737  45420.000000  0      -2157755.269       6638395.992        -86188.070
10 0 59737  45480.000000  0      -2067111.922       6647217.974       -535122.166
10 0 59737  45540.000000  0      -1967832.990       6627280.587       -981791.435
10 0 59737  45600.000000  0      -1860591.133       6578608.544      -1424307.407
10 0 59737  45660.000000  0      -1746091.410       6501353.851      -1860801.326
10 0 59737  45720.000000  0      -1625067.116       6395795.039      -2289432.048
10 0 59737  45780.000000  0      -1498275.478       6262335.845      -2708393.794
10 0 59737  45840.000000  0      -1366493.300       6101503.384      -3115923.661
10 0 59737  45900.000000  0      -1230512.566       5913945.807      -3510308.976
10 0 59737  45960.000000  0      -1091136.031       5700429.364      -3889894.418
10 0 59737  46020.000000  0       -949172.794       5461834.905      -4253088.805
10 0 59737  46080.000000  0       -805433.907       5199153.924      -4598371.520
10 0 59737  46140.000000  0       -660728.028       4913484.191      -4924298.603
10 0 59737  46200.000000  0       -515857.139       4606024.939      -5229508.534
10 0 59737  46260.000000  0       -371612.348       4278071.615      -5512727.643
10 0 59737  46320.000000  0       -228769.793       3931010.222      -5772775.128
10 0 59737  46380.000000  0        -88086.691       3566311.292      -6008567.627
10 0 59737  46440.000000  0         49702.464       3185523.531      -6219123.380
10 0 59737  46500.000000  0        183889.507       2790267.191      -6403565.911
10 0 59737  46560.000000  0        313796.028       2382227.232      -6561127.315
10 0 59737  46620.000000  0        438776.635       1963146.286      -6691151.176
10 0 59737  46680.000000  0        558222.011       1534817.338      -6793095.105
10 0 59737  46740.000000  0        671561.747       1099076.179      -6866532.757
10 0 59737  46800.000000  0        778266.939        657793.798      -6911155.425
10 0 59737  46860.000000  0        877852.580        212868.574      -6926773.313
10 0 59737  46920.000000  0        969879.687       -233781.701      -6913316.277
10 0 59737  46980.000000  0       1053957.179       -680227.813      -6870834.093
10 0 59737  47040.000000  0       1129743.507      -1124537.154      -6799496.342
10 0 59737  47100.000000  0       1196948.032      -1564781.799      -6699591.881
10 0 59737  47160.000000  0       1255332.134      -1999046.582      -6571527.928
10 0 59737  47220.000000  0       1304710.115      -2425437.207      -6415828.749
10 0 59737  47280.000000  0       1344949.815      -2842088.378      -6233133.900
10 0 59737  47340.000000  0       1375972.910      -3247171.941      -6024196.041
10 0 59737  47400.000000  0       1397754.919      -3638904.964      -5789878.194
10 0 59737  47460.000000  0       1410324.979      -4015557.608      -5531150.525
10 0 59737  47520.000000  0       1413765.348      -4375460.820      -5249086.697
10 0 59737  47580.000000  0       1408210.643      -4717013.831      -4944859.861
10 0 59737  47640.000000  0       1393846.788      -5038691.513      -4619738.230
10 0 59737  47700.000000  0       1370909.662      -5339051.535      -4275080.179
10 0 59737  47760.000000  0       1339683.463      -5616741.187      -3912328.861
10 0 59737  47820.000000  0       1300498.814      -5870503.838      -3533006.416
10 0 59737  47880.000000  0       1253730.634      -6099185.020      -3138707.816
10 0 59737  47940.000000  0       1199795.756      -6301738.142      -2731094.325
10 0 59737  48000.000000  0       1139150.320      -6477229.751      -2311886.587
10 0 59737  48060.000000  0       1072286.929      -6624844.291      -1882857.361
10 0 59737  48120.000000  0        999731.574      -6743888.345      -1445823.984
10 0 59737  48180.000000  0        922040.338      -6833794.310      -1002640.519
10 0 59737  48240.000000  0        839795.954      -6894123.435       -555189.698
10 0 59737  48300.000000  0        753604.221      -6924568.272       -105374.721
10 0 59737  48360.000000  0        664090.274      -6924954.507        344889.086
10 0 59737  48420.000000  0        571894.733      -6895242.162        793682.737
10 0 59737  48480.000000  0        477669.783      -6835526.095       1239092.101
10 0 59737  48540.000000  0        382075.181      -6746035.883       1679216.440
10 0 59737  48600.000000  0        285774.223      -6627134.967       2112176.925
10 0 59737  48660.000000  0        189429.713      -6479319.121       2536125.051
10 0 59737  48720.000000  0         93699.949      -6303214.174       2949250.895
10 0 59737  48780.000000  0          -765.289      -6099573.110       3349791.119
10 0 59737  48840.000000  0        -93328.693      -5869272.544       3736036.647
10 0 59737  48900.000000  0       -183369.222      -5613308.751       4106340.122
10 0 59737  48960.000000  0       -270285.825      -5332793.069       4459123.151
10 0 59737  49020.000000  0       -353501.030      -5028946.675       4792883.170
10 0 59737  49080.000000  0       -432464.340      -4703094.896       5106199.836
10 0 59737  49140.000000  0       -506655.445      -4356661.140       5397741.111
10 0 59737  49200.000000  0       -575587.277      -3991160.303       5666268.981
10 0 59737  49260.000000  0       -638808.832      -3608191.711       5910644.654
10 0 59737  49320.000000  0       -695907.771      -3209431.737       6129833.228
10 0 59737  49380.000000  0       -746512.763      -2796626.141       6322907.842
10 0 59737  49440.000000  0       -790295.607      -2371582.239       6489053.354
10 0 59737  49500.000000  0       -826973.074      -1936160.827       6627569.623
10 0 59737  49560.000000  0       -856308.494      -1492267.888       6737874.322
10 0 59737  49620.000000  0       -878113.102      -1041846.080       6819505.268
10 0 59737  49680.000000  0       -892247.108       -586866.083       6872122.216
10 0 59737  49740.000000  0       -898620.486       -129317.865       6895508.113
10 0 59737  49800.000000  0       -897193.444        328798.077       6889569.887
10 0 59737  49860.000000  0       -887976.606        785479.558       6854338.738
10 0 59737  49920.000000  0       -871030.910       1238731.509       6789969.880
10 0 59737  49980.000000  0       -846467.212       1686574.721       6696741.814
10 0 59737  50040.000000  0       -814445.636       2127054.545       6575055.113
10 0 59737  50100.000000  0       -775174.619       2558249.449       6425430.685
10 0 59737  50160.000000  0       -728909.715       2978279.431       6248507.616
10 0 59737  50220.000000  0       -675952.133       3385314.342       6045040.503
10 0 59737  50280.000000  0       -616646.993       3777581.944       5815896.240
10 0 59737  50340.000000  0       -551381.330       4153375.690       5562050.394
99
